#dP2024 12 14 12  0  0.00000000      96 __u+U IGS20 EXT  IAC
## 2344 561600.00000000   900.00000000 60658 0.5000000000000
+   52   G02G03G04G05G06G07G08G09G10G11G12G13G14G15G16G17G18
+        G19G20G21G22G23G24G25G26G27G28G29G30G31G32R01R02R03
+        R04R05R07R08R09R11R12R14R15R16R17R18R19R20R21R22R24
+        R26  0  0  0  0  0  0  0  0  0  0  0  0  0  0  0  0
+          0  0  0  0  0  0  0  0  0  0  0  0  0  0  0  0  0
++         6  7  6  8  7  7  6  7  7  6  6  7  6  6  8  7  6
++         8  6  6  7  7  6  6  8  7  7  6  7  7  8  8  7  8
++         7  7  7  6  8  9  7  7 10  9  8  7  9  7  7  7  8
++         7  0  0  0  0  0  0  0  0  0  0  0  0  0  0  0  0
++         0  0  0  0  0  0  0  0  0  0  0  0  0  0  0  0  0
%c M  cc GPS ccc cccc cccc cccc cccc ccccc ccccc ccccc ccccc
%c cc cc ccc ccc cccc cccc cccc cccc ccccc ccccc ccccc ccccc
%f  0.0000000  0.000000000  0.00000000000  0.000000000000000
%f  0.0000000  0.000000000  0.00000000000  0.000000000000000
%i    0    0    0    0      0      0      0      0         0
%i    0    0    0    0      0      0      0      0         0
/* IAC                                ULTRA-RAPID PREDICTION
/* S/V CLOCKS ARE ALIGNED TO GNSS TIME                      
/* G:C1WC2W R:C1PC2P E:C1XC5X C:C2IC6I J:C1CC2S             
/* PCV:IGS20_2317 OL/AL:FES2004  NONE     YN ORB:CoN CLK:CoN
*  2024 12 15  3  0  0.00000000
PG02  22826.833161  13145.531931   5195.839250   -291.761266
PG03  13265.627766   6663.691335  21868.794262    624.722390
PG04  23726.776039   2039.937278  11935.542301    496.020441
PG05  -6777.335746 -20843.862047 -15132.371288   -196.038571
PG06   2663.408927 -16362.964825  20795.539072    -44.926093
PG07  19821.683772   1428.834686 -17300.216230    -15.587328
PG08  15837.450006   9177.235006 -19523.097641    438.669817
PG09  25632.682326  -5900.098582   3841.765330    487.460428
PG10 -10235.625175  23120.759005  -7308.831633   -234.882235
PG11  -9167.039676 -21598.085121  12544.746482   -752.621646
PG12 -11765.636147 -11200.524308  20736.579786   -558.417362
PG13  -6718.628566 -13977.450926 -21822.972876    689.993564
PG14  12950.421741 -20455.468460 -10600.521267    560.358893
PG15 -16996.676874  -7557.405978 -19534.338832    239.702331
PG16   1119.364878  23709.962626 -11789.721600   -103.028013
PG17  19806.781727 -13505.485711  12060.382046    518.649921
PG18 -18074.225499   1029.000580 -19481.793895   -660.284056
PG19  10559.430371 -15304.047262  18653.759329    574.070999
PG20  -1331.442866 -26370.104490  -3420.559619    367.886834
PG21  21084.972901  17058.496638  -1142.432867     96.089725
PG22   9683.980595 -24760.661138  -2358.411699    -86.400907
PG23 -14858.801344  11855.765537 -18407.812687    383.727633
PG24 -22118.738096 -14923.492596   1804.338428   -473.368816
PG25 -15822.221648   3838.921756  20580.877394    498.086499
PG26  -3622.525464  26095.470832    111.990148     -9.264504
PG27   4081.735932  14841.392333 -21939.189610    -34.169566
PG28  -4365.762511  15636.562905  21006.760519   -508.420872
PG29 -26139.857012   3497.780949   3635.244417   -555.847511
PG30  11841.844081 -10407.951932 -21236.450110   -261.087730
PG31   4884.927436  20352.175184  15884.373445   -219.946010
PG32 -15883.370326  15693.962739  14449.798468   -558.853217
PR01 -17621.462337   3410.268670 -18128.054945    107.806603
PR02 -20993.702019  14065.250196  -3134.096015    -39.120102
PR03 -12119.125259  17594.867606  13929.949286    113.285200
PR04   2655.869791  11149.455131  22813.519504    268.487928
PR05  16317.407195   -988.712442  19601.742029    142.186161
PR07  11988.384348 -17558.029790 -14099.485777     96.953231
PR08  -2990.253293 -11074.395641 -22728.578574     -6.113209
PR09   9104.615491 -10112.116043 -21543.283680    226.290260
PR11  -6133.383657 -24163.557656   5366.056691      4.590155
PR12 -11393.785575  -9787.740372  20638.163754     48.430580
PR14  -1536.580592  23302.655869  10289.398259     27.423509
PR15   6767.784152  23554.026215  -7075.542690     73.176415
PR16  11271.253143   9973.885174 -20601.880948     31.644366
PR17  -1504.804114  10838.264526 -23023.116801    148.616774
PR18  14592.091786  13990.521812 -15564.165619    176.872706
PR19  22600.423190  11637.318594  -2073.486540   -301.968261
PR20  18465.351694    -23.950211  17633.738434   -123.223086
PR21   2684.557837 -10329.950511  23175.986625   -159.639235
PR22 -15116.269370 -14519.281624  14562.936807    -41.998595
PR24 -18246.765177   1555.742920 -17740.562335    -84.109932
PR26  -1397.156093 -12133.225961 -22372.109684   -132.739605
*  2024 12 15  3 15  0.00000000
PG02  23012.995338  13531.781436   2393.797015   -291.753306
PG03  12751.341868   9107.349117  21300.122503    624.729989
PG04  22358.880189   2653.559894  14224.578357    496.025992
PG05  -6392.125820 -22382.433018 -12908.055273   -196.039662
PG06   4495.498599 -14799.002215  21647.975613    -44.951925
PG07  21189.946194   2836.979919 -15505.779771    -15.586139
PG08  13763.426579  10083.440162 -20585.116684    438.677911
PG09  25151.301946  -5455.649773   6609.136871    487.474942
PG10 -10229.673152  22076.936772 -10000.552908   -234.896103
PG11  -7911.966222 -20663.040372  14776.727451   -752.621938
PG12 -11075.261777 -13473.768949  19758.849430   -558.419540
PG13  -4308.718060 -14458.643555 -22098.631190    689.994849
PG14  12929.214986 -19063.602097 -12969.445810    560.365759
PG15 -15112.214277  -8693.421111 -20597.326948    239.706407
PG16    563.667241  24771.291289  -9267.185240   -103.019310
PG17  20989.029197 -13646.960628   9575.301518    518.635510
PG18 -19599.433647   -475.249439 -17993.271092   -660.283640
PG19  12621.285909 -15623.328016  17011.179200    574.074800
PG20  -1073.470031 -26605.948161   -593.249846    367.886554
PG21  20721.813357  17012.634273  -3915.008609     96.092108
PG22   9780.386702 -24245.239794  -5152.179333    -86.403094
PG23 -14610.247893   9668.287692 -19847.075443    383.734591
PG24 -22024.667645 -15226.159263   -972.759464   -473.366027
PG25 -15480.139107   1391.187916  21158.272421    498.086142
PG26  -3973.716106  25863.065787   2920.441894     -9.277198
PG27   1779.040497  15628.547229 -21656.475054    -34.169274
PG28  -6293.169811  14140.988635  21570.105415   -508.430517
PG29 -25637.746843   3138.083289   6422.515366   -555.844626
PG30  13679.292433  -8789.511953 -20887.637565   -261.080431
PG31   3283.892546  19174.826284  17667.926394   -219.945296
PG32 -17360.369603  16010.417508  12172.297445   -558.847730
PR01 -15800.539846   1924.365017 -19934.639269    107.807764
PR02 -20430.338629  13824.698914  -6296.658048    -39.119911
PR03 -13223.202630  18688.211743  11225.538298    113.285910
PR04    537.693678  12921.644026  22010.035795    268.489490
PR05  14303.550937    515.946585  21131.356265    142.186587
PR07  13116.096890 -18673.624720 -11419.343960     96.953861
PR08   -878.384947 -12870.406102 -21954.606388     -6.113132
PR09   9633.491707  -7450.386316 -22388.094346    226.292302
PR11  -6356.109461 -24597.043735   2197.765636      4.589129
PR12 -11882.398250 -12181.819799  19025.166381     48.430978
PR14  -1698.562970  21870.865835  13039.021970     27.423486
PR15   7008.111577  24205.129059  -3967.371912     73.176083
PR16  11778.334362  12362.959147 -18960.742681     31.644667
PR17  -4173.814380   9823.072396 -23152.451951    148.619739
PR18  12722.420231  13104.340094 -17806.844152    176.874441
PR19  22266.177255  11261.963296  -5276.603166   -301.969566
PR20  20393.747049    640.956789  15350.451906   -123.224028
PR21   5350.058647  -9294.439324  23150.025154   -159.642139
PR22 -13370.722770 -13674.823519  16905.131615    -42.010136
PR24 -20208.554523    929.298512 -15524.335888    -84.111367
PR26    643.731908 -13907.803141 -21349.987219   -132.739336
EOF
